STARLINK-1830           
1 46727U 20073BK  23002.35966148  .00007817  00000+0  54326-3 0  9992
2 46727  53.0556  34.5367 0002501  38.4028 321.7139 15.06390785122299
FLOCK 4V-22             
1 46735U 20061BL  23002.93509111  .00011936  00000+0  47141-3 0  9999
2 46735  97.3654  74.9694 0006080 128.0019 232.1834 15.25648887122096
FLOCK 4V-23             
1 46737U 20061BM  23002.92434932  .00009265  00000+0  37255-3 0  9995
2 46737  97.3741  75.6353 0005049 109.3328 250.8457 15.25120673122023
FLOCK 4V-24             
1 46738U 20061BN  23002.95584528  .00022282  00000+0  86240-3 0  9998
2 46738  97.3802  76.5674 0006006 154.6090 205.5895 15.26186199121603
STARLINK-1848           
1 46740U 20074B   23002.65176346  .00000399  00000+0  45659-4 0  9992
2 46740  53.0520 143.2134 0001523  72.8923 287.2232 15.06394801121454
STARLINK-1865           
1 46741U 20074C   23002.66881062  .00000057  00000+0  22758-4 0  9998
2 46741  53.0552 138.1471 0001708  49.4012 310.7126 15.06396538121533
STARLINK-1872           
1 46742U 20074D   23002.70018604  .00053151  00000+0  73886-3 0  9998
2 46742  53.0525 104.6917 0000805 231.7682 128.3256 15.56491347122002
STARLINK-1892           
1 46743U 20074E   23002.66143508 -.00000555  00000+0 -18335-4 0  9997
2 46743  53.0543 138.1560 0001422  77.4859 282.6289 15.06396199121537
STARLINK-1894           
1 46744U 20074F   23002.61257564 -.00001009  00000+0 -48839-4 0  9998
2 46744  53.0526 138.3814 0001687  56.7833 303.3318 15.06391064121527
STARLINK-1905           
1 46746U 20074H   23002.62826526  .00001737  00000+0  13546-3 0  9993
2 46746  53.0532 138.3176 0001628  56.6262 303.4883 15.06404337121523
STARLINK-1908           
1 46747U 20074J   23002.74253383 -.00001019  00000+0 -49522-4 0  9991
2 46747  53.0532 137.8025 0001295  77.9363 282.1771 15.06390333121540
STARLINK-1910           
1 46748U 20074K   23002.61720317  .00000880  00000+0  77989-4 0  9995
2 46748  53.0536 138.3605 0001328  96.5878 263.5262 15.06397079121520
STARLINK-1911           
1 46749U 20074L   23002.62457893  .00000269  00000+0  36966-4 0  9994
2 46749  53.0543 138.3405 0001483  65.0641 295.0502 15.06394159121521
STARLINK-1920           
1 46751U 20074N   23002.42184944  .00000691  00000+0  65304-4 0  9996
2 46751  53.0540 139.2522 0001419  82.7580 277.3570 15.06399597121493
STARLINK-1921           
1 46752U 20074P   23002.63196076 -.00000004  00000+0  18654-4 0  9994
2 46752  53.0543 138.3055 0001265  78.8511 281.2620 15.06392721121534
STARLINK-1922           
1 46753U 20074Q   23002.66511487 -.00000297  00000+0 -10130-5 0  9992
2 46753  53.0538 138.1552 0001583  56.5104 303.6036 15.06407396121538
STARLINK-1923           
1 46754U 20074R   23002.67249430  .00000775  00000+0  70901-4 0  9990
2 46754  53.0550 138.1168 0001349  71.8579 288.2557 15.06396185121531
