[{"OBJECT_NAME":"STARLINK-1830","OBJECT_ID":"2020-073BK","EPOCH":"2023-01-02T08:37:54.751872","MEAN_MOTION":15.06390785,"ECCENTRICITY":0.0002501,"INCLINATION":53.0556,"RA_OF_ASC_NODE":34.5367,"ARG_OF_PERICENTER":38.4028,"MEAN_ANOMALY":321.7139,"EPHEMERIS_TYPE":0,"CLASSIFICATION_TYPE":"U","NORAD_CAT_ID":46727,"ELEMENT_SET_NO":999,"REV_AT_EPOCH":12229,"BSTAR":0.00054326,"MEAN_MOTION_DOT":7.817e-5,"MEAN_MOTION_DDOT":0},{"OBJECT_NAME":"FLOCK 4V-22","OBJECT_ID":"2020-061BL","EPOCH":"2023-01-02T22:26:31.871904","MEAN_MOTION":15.25648887,"ECCENTRICITY":0.000608,"INCLINATION":97.3654,"RA_OF_ASC_NODE":74.9694,"ARG_OF_PERICENTER":128.0019,"MEAN_ANOMALY":232.1834,"EPHEMERIS_TYPE":0,"CLASSIFICATION_TYPE":"U","NORAD_CAT_ID":46735,"ELEMENT_SET_NO":999,"REV_AT_EPOCH":12209,"BSTAR":0.00047141,"MEAN_MOTION_DOT":0.00011936,"MEAN_MOTION_DDOT":0},{"OBJECT_NAME":"FLOCK 4V-23","OBJECT_ID":"2020-061BM","EPOCH":"2023-01-02T22:11:03.781248","MEAN_MOTION":15.25120673,"ECCENTRICITY":0.0005049,"INCLINATION":97.3741,"RA_OF_ASC_NODE":75.6353,"ARG_OF_PERICENTER":109.3328,"MEAN_ANOMALY":250.8457,"EPHEMERIS_TYPE":0,"CLASSIFICATION_TYPE":"U","NORAD_CAT_ID":46737,"ELEMENT_SET_NO":999,"REV_AT_EPOCH":12202,"BSTAR":0.00037255,"MEAN_MOTION_DOT":9.265e-5,"MEAN_MOTION_DDOT":0},{"OBJECT_NAME":"FLOCK 4V-24","OBJECT_ID":"2020-061BN","EPOCH":"2023-01-02T22:56:25.032192","MEAN_MOTION":15.26186199,"ECCENTRICITY":0.0006006,"INCLINATION":97.3802,"RA_OF_ASC_NODE":76.5674,"ARG_OF_PERICENTER":154.609,"MEAN_ANOMALY":205.5895,"EPHEMERIS_TYPE":0,"CLASSIFICATION_TYPE":"U","NORAD_CAT_ID":46738,"ELEMENT_SET_NO":999,"REV_AT_EPOCH":12160,"BSTAR":0.0008624,"MEAN_MOTION_DOT":0.00022282,"MEAN_MOTION_DDOT":0},{"OBJECT_NAME":"STARLINK-1848","OBJECT_ID":"2020-074B","EPOCH":"2023-01-02T15:38:32.362944","MEAN_MOTION":15.06394801,"ECCENTRICITY":0.0001523,"INCLINATION":53.052,"RA_OF_ASC_NODE":143.2134,"ARG_OF_PERICENTER":72.8923,"MEAN_ANOMALY":287.2232,"EPHEMERIS_TYPE":0,"CLASSIFICATION_TYPE":"U","NORAD_CAT_ID":46740,"ELEMENT_SET_NO":999,"REV_AT_EPOCH":12145,"BSTAR":4.5659e-5,"MEAN_MOTION_DOT":3.99e-6,"MEAN_MOTION_DDOT":0},{"OBJECT_NAME":"STARLINK-1865","OBJECT_ID":"2020-074C","EPOCH":"2023-01-02T16:03:05.237568","MEAN_MOTION":15.06396538,"ECCENTRICITY":0.0001708,"INCLINATION":53.0552,"RA_OF_ASC_NODE":138.1471,"ARG_OF_PERICENTER":49.4012,"MEAN_ANOMALY":310.7126,"EPHEMERIS_TYPE":0,"CLASSIFICATION_TYPE":"U","NORAD_CAT_ID":46741,"ELEMENT_SET_NO":999,"REV_AT_EPOCH":12153,"BSTAR":2.2758e-5,"MEAN_MOTION_DOT":5.7e-7,"MEAN_MOTION_DDOT":0},{"OBJECT_NAME":"STARLINK-1872","OBJECT_ID":"2020-074D","EPOCH":"2023-01-02T16:48:16.073856","MEAN_MOTION":15.56491347,"ECCENTRICITY":8.05e-5,"INCLINATION":53.0525,"RA_OF_ASC_NODE":104.6917,"ARG_OF_PERICENTER":231.7682,"MEAN_ANOMALY":128.3256,"EPHEMERIS_TYPE":0,"CLASSIFICATION_TYPE":"U","NORAD_CAT_ID":46742,"ELEMENT_SET_NO":999,"REV_AT_EPOCH":12200,"BSTAR":0.00073886,"MEAN_MOTION_DOT":0.00053151,"MEAN_MOTION_DDOT":0},{"OBJECT_NAME":"STARLINK-1892","OBJECT_ID":"2020-074E","EPOCH":"2023-01-02T15:52:27.990912","MEAN_MOTION":15.06396199,"ECCENTRICITY":0.0001422,"INCLINATION":53.0543,"RA_OF_ASC_NODE":138.156,"ARG_OF_PERICENTER":77.4859,"MEAN_ANOMALY":282.6289,"EPHEMERIS_TYPE":0,"CLASSIFICATION_TYPE":"U","NORAD_CAT_ID":46743,"ELEMENT_SET_NO":999,"REV_AT_EPOCH":12153,"BSTAR":-1.8335e-5,"MEAN_MOTION_DOT":-5.55e-6,"MEAN_MOTION_DDOT":0},{"OBJECT_NAME":"STARLINK-1894","OBJECT_ID":"2020-074F","EPOCH":"2023-01-02T14:42:06.535296","MEAN_MOTION":15.06391064,"ECCENTRICITY":0.0001687,"INCLINATION":53.0526,"RA_OF_ASC_NODE":138.3814,"ARG_OF_PERICENTER":56.7833,"MEAN_ANOMALY":303.3318,"EPHEMERIS_TYPE":0,"CLASSIFICATION_TYPE":"U","NORAD_CAT_ID":46744,"ELEMENT_SET_NO":999,"REV_AT_EPOCH":12152,"BSTAR":-4.8839e-5,"MEAN_MOTION_DOT":-1.009e-5,"MEAN_MOTION_DDOT":0},{"OBJECT_NAME":"STARLINK-1905","OBJECT_ID":"2020-074H","EPOCH":"2023-01-02T15:04:42.118464","MEAN_MOTION":15.06404337,"ECCENTRICITY":0.0001628,"INCLINATION":53.0532,"RA_OF_ASC_NODE":138.3176,"ARG_OF_PERICENTER":56.6262,"MEAN_ANOMALY":303.4883,"EPHEMERIS_TYPE":0,"CLASSIFICATION_TYPE":"U","NORAD_CAT_ID":46746,"ELEMENT_SET_NO":999,"REV_AT_EPOCH":12152,"BSTAR":0.00013546,"MEAN_MOTION_DOT":1.737e-5,"MEAN_MOTION_DDOT":0},{"OBJECT_NAME":"STARLINK-1908","OBJECT_ID":"2020-074J","EPOCH":"2023-01-02T17:49:14.922912","MEAN_MOTION":15.06390333,"ECCENTRICITY":0.0001295,"INCLINATION":53.0532,"RA_OF_ASC_NODE":137.8025,"ARG_OF_PERICENTER":77.9363,"MEAN_ANOMALY":282.1771,"EPHEMERIS_TYPE":0,"CLASSIFICATION_TYPE":"U","NORAD_CAT_ID":46747,"ELEMENT_SET_NO":999,"REV_AT_EPOCH":12154,"BSTAR":-4.9522e-5,"MEAN_MOTION_DOT":-1.019e-5,"MEAN_MOTION_DDOT":0},{"OBJECT_NAME":"STARLINK-1910","OBJECT_ID":"2020-074K","EPOCH":"2023-01-02T14:48:46.353888","MEAN_MOTION":15.06397079,"ECCENTRICITY":0.0001328,"INCLINATION":53.0536,"RA_OF_ASC_NODE":138.3605,"ARG_OF_PERICENTER":96.5878,"MEAN_ANOMALY":263.5262,"EPHEMERIS_TYPE":0,"CLASSIFICATION_TYPE":"U","NORAD_CAT_ID":46748,"ELEMENT_SET_NO":999,"REV_AT_EPOCH":12152,"BSTAR":7.7989e-5,"MEAN_MOTION_DOT":8.8e-6,"MEAN_MOTION_DDOT":0},{"OBJECT_NAME":"STARLINK-1911","OBJECT_ID":"2020-074L","EPOCH":"2023-01-02T14:59:23.619552","MEAN_MOTION":15.06394159,"ECCENTRICITY":0.0001483,"INCLINATION":53.0543,"RA_OF_ASC_NODE":138.3405,"ARG_OF_PERICENTER":65.0641,"MEAN_ANOMALY":295.0502,"EPHEMERIS_TYPE":0,"CLASSIFICATION_TYPE":"U","NORAD_CAT_ID":46749,"ELEMENT_SET_NO":999,"REV_AT_EPOCH":12152,"BSTAR":3.6966e-5,"MEAN_MOTION_DOT":2.69e-6,"MEAN_MOTION_DDOT":0},{"OBJECT_NAME":"STARLINK-1920","OBJECT_ID":"2020-074N","EPOCH":"2023-01-02T10:07:27.791616","MEAN_MOTION":15.06399597,"ECCENTRICITY":0.0001419,"INCLINATION":53.054,"RA_OF_ASC_NODE":139.2522,"ARG_OF_PERICENTER":82.758,"MEAN_ANOMALY":277.357,"EPHEMERIS_TYPE":0,"CLASSIFICATION_TYPE":"U","NORAD_CAT_ID":46751,"ELEMENT_SET_NO":999,"REV_AT_EPOCH":12149,"BSTAR":6.5304e-5,"MEAN_MOTION_DOT":6.91e-6,"MEAN_MOTION_DDOT":0},{"OBJECT_NAME":"STARLINK-1921","OBJECT_ID":"2020-074P","EPOCH":"2023-01-02T15:10:01.409664","MEAN_MOTION":15.06392721,"ECCENTRICITY":0.0001265,"INCLINATION":53.0543,"RA_OF_ASC_NODE":138.3055,"ARG_OF_PERICENTER":78.8511,"MEAN_ANOMALY":281.262,"EPHEMERIS_TYPE":0,"CLASSIFICATION_TYPE":"U","NORAD_CAT_ID":46752,"ELEMENT_SET_NO":999,"REV_AT_EPOCH":12153,"BSTAR":1.8654e-5,"MEAN_MOTION_DOT":-4.0e-8,"MEAN_MOTION_DDOT":0},{"OBJECT_NAME":"STARLINK-1922","OBJECT_ID":"2020-074Q","EPOCH":"2023-01-02T15:57:45.924768","MEAN_MOTION":15.06407396,"ECCENTRICITY":0.0001583,"INCLINATION":53.0538,"RA_OF_ASC_NODE":138.1552,"ARG_OF_PERICENTER":56.5104,"MEAN_ANOMALY":303.6036,"EPHEMERIS_TYPE":0,"CLASSIFICATION_TYPE":"U","NORAD_CAT_ID":46753,"ELEMENT_SET_NO":999,"REV_AT_EPOCH":12153,"BSTAR":-1.013e-6,"MEAN_MOTION_DOT":-2.97e-6,"MEAN_MOTION_DDOT":0},{"OBJECT_NAME":"STARLINK-1923","OBJECT_ID":"2020-074R","EPOCH":"2023-01-02T16:08:23.507520","MEAN_MOTION":15.06396185,"ECCENTRICITY":0.0001349,"INCLINATION":53.055,"RA_OF_ASC_NODE":138.1168,"ARG_OF_PERICENTER":71.8579,"MEAN_ANOMALY":288.2557,"EPHEMERIS_TYPE":0,"CLASSIFICATION_TYPE":"U","NORAD_CAT_ID":46754,"ELEMENT_SET_NO":999,"REV_AT_EPOCH":12153,"BSTAR":7.0901e-5,"MEAN_MOTION_DOT":7.75e-6,"MEAN_MOTION_DDOT":0}]
